ICEYE-X40               
1 60549U 24149CK  26202.16845208  .00001755  00000+0  15315-3 0  9995
2 60549  97.6800 278.1192 0003271 347.2707  12.8432 14.98101188105163
ICEYE-X49               
1 62384U 24247H   26202.22906791  .00002160  00000+0  13279-3 0  9993
2 62384  44.9981 175.5541 0000364 162.7330 197.3560 15.13481548 87335
ICEYE-X47               
1 62389U 24247N   26202.20473052  .00001554  00000+0  99429-4 0  9993
2 62389  44.9962 175.2743 0000760  29.9955 330.0966 15.13502666 87338
ICEYE-X42               
1 62698U 25009CT  26202.14568291  .00001218  00000+0  12613-3 0  9992
2 62698  97.7388 279.8478 0001314  99.3275 260.8093 14.91834031 82354
ICEYE-X41               
1 62700U 25009CV  26202.16284432  .00002488  00000+0  22160-3 0  9998
2 62700  97.7058 281.1966 0000574 177.0295 183.0931 14.96936958 82491
ICEYE-X45               
1 62705U 25009DA  26202.13161231  .00006445  00000+0  51152-3 0  9991
2 62705  97.8421 289.1011 0001079  91.4176 268.7171 15.00850345 82777
ICEYE-X44               
1 62707U 25009DC  26202.12809561  .00001392  00000+0  12861-3 0  9997
2 62707  97.7053 280.7192 0002065  60.0684 300.0742 14.96186508105012
ICEYE-X48               
1 63253U 25052AV  26201.45351239  .00002080  00000+0  18037-3 0  9997
2 63253  97.6841  93.1292 0004333  91.6540 268.5179 14.98147333 73652
ICEYE-X50               
1 63255U 25052AX  26202.28515453  .00000722  00000+0  70562-4 0  9994
2 63255  97.6846  93.5199 0003398  90.9842 269.1769 14.95374384 73743
ICEYE-X51               
1 63257U 25052AZ  26202.19237160  .00002893  00000+0  23204-3 0  9993
2 63257  97.7620  97.2300 0002074  63.1436 297.0000 15.00888946 73909
ICEYE-X46               
1 63258U 25052BA  26202.14803917  .00000740  00000+0  72175-4 0  9999
2 63258  97.6850  93.3849 0001526  81.2835 278.8559 14.95377472 73720
ICEYE-X54               
1 64570U 25135AU  26202.30099230  .00001572  00000+0  14998-3 0  9994
2 64570  97.7748 316.4003 0002517 166.3249 193.8040 14.94751663 58991
ICEYE-X52               
1 64572U 25135AW  26202.30327306  .00000942  00000+0  94514-4 0  9997
2 64572  97.7772 316.1834 0001746 170.4875 189.6378 14.93665224 58974
ICEYE-X56               
1 64574U 25135AY  26202.28420897  .00002077  00000+0  19137-3 0  9993
2 64574  97.7773 316.9831 0001750 170.6234 189.5020 14.95788202 59022
ICEYE-X57               
1 64578U 25135BC  26202.26826826  .00003403  00000+0  27230-3 0  9994
2 64578  97.8035 318.8468 0002170  56.0799 304.0631 15.00870871 59130
ICEYE-X55               
1 64581U 25135BF  26202.29329807  .00001629  00000+0  15279-3 0  9996
2 64581  97.7770 316.8139 0002286 209.4724 150.6369 14.95384796 59011
