{"fetched_at":"2026-07-21T17:53:33.243Z","source":"https://celestrak.org/NORAD/elements/gp.php?NAME=ICEYE&FORMAT=JSON","constellation":"iceye","records":[{"OBJECT_NAME":"ICEYE-X40","OBJECT_ID":"2024-149CK","EPOCH":"2026-07-21T04:02:34.259712","CLASSIFICATION_TYPE":"U","MEAN_MOTION":14.98101188,"ECCENTRICITY":0.00032719,"INCLINATION":97.68,"RA_OF_ASC_NODE":278.1192,"ARG_OF_PERICENTER":347.2707,"MEAN_ANOMALY":12.8432,"EPHEMERIS_TYPE":0,"NORAD_CAT_ID":60549,"ELEMENT_SET_NO":999,"REV_AT_EPOCH":10516,"BSTAR":0.00015315153,"MEAN_MOTION_DOT":0.00001755,"MEAN_MOTION_DDOT":0},{"OBJECT_NAME":"ICEYE-X49","OBJECT_ID":"2024-247H","EPOCH":"2026-07-21T05:29:51.467424","CLASSIFICATION_TYPE":"U","MEAN_MOTION":15.13481548,"ECCENTRICITY":0.00003649,"INCLINATION":44.9981,"RA_OF_ASC_NODE":175.5541,"ARG_OF_PERICENTER":162.733,"MEAN_ANOMALY":197.356,"EPHEMERIS_TYPE":0,"NORAD_CAT_ID":62384,"ELEMENT_SET_NO":999,"REV_AT_EPOCH":8733,"BSTAR":0.00013279172,"MEAN_MOTION_DOT":0.0000216,"MEAN_MOTION_DDOT":0},{"OBJECT_NAME":"ICEYE-X47","OBJECT_ID":"2024-247N","EPOCH":"2026-07-21T04:54:48.716928","CLASSIFICATION_TYPE":"U","MEAN_MOTION":15.13502666,"ECCENTRICITY":0.00007602,"INCLINATION":44.9962,"RA_OF_ASC_NODE":175.2743,"ARG_OF_PERICENTER":29.9955,"MEAN_ANOMALY":330.0966,"EPHEMERIS_TYPE":0,"NORAD_CAT_ID":62389,"ELEMENT_SET_NO":999,"REV_AT_EPOCH":8733,"BSTAR":0.000099428708,"MEAN_MOTION_DOT":0.00001554,"MEAN_MOTION_DDOT":0},{"OBJECT_NAME":"ICEYE-X42","OBJECT_ID":"2025-009CT","EPOCH":"2026-07-21T03:29:47.003424","CLASSIFICATION_TYPE":"U","MEAN_MOTION":14.91834031,"ECCENTRICITY":0.00013147,"INCLINATION":97.7388,"RA_OF_ASC_NODE":279.8478,"ARG_OF_PERICENTER":99.3275,"MEAN_ANOMALY":260.8093,"EPHEMERIS_TYPE":0,"NORAD_CAT_ID":62698,"ELEMENT_SET_NO":999,"REV_AT_EPOCH":8235,"BSTAR":0.00012612837,"MEAN_MOTION_DOT":0.00001218,"MEAN_MOTION_DDOT":0},{"OBJECT_NAME":"ICEYE-X41","OBJECT_ID":"2025-009CV","EPOCH":"2026-07-21T03:54:29.749248","CLASSIFICATION_TYPE":"U","MEAN_MOTION":14.96936958,"ECCENTRICITY":0.00005749,"INCLINATION":97.7058,"RA_OF_ASC_NODE":281.1966,"ARG_OF_PERICENTER":177.0295,"MEAN_ANOMALY":183.0931,"EPHEMERIS_TYPE":0,"NORAD_CAT_ID":62700,"ELEMENT_SET_NO":999,"REV_AT_EPOCH":8249,"BSTAR":0.00022159503,"MEAN_MOTION_DOT":0.00002488,"MEAN_MOTION_DDOT":0},{"OBJECT_NAME":"ICEYE-X45","OBJECT_ID":"2025-009DA","EPOCH":"2026-07-21T03:09:31.303584","CLASSIFICATION_TYPE":"U","MEAN_MOTION":15.00850345,"ECCENTRICITY":0.00010791,"INCLINATION":97.8421,"RA_OF_ASC_NODE":289.1011,"ARG_OF_PERICENTER":91.4176,"MEAN_ANOMALY":268.7171,"EPHEMERIS_TYPE":0,"NORAD_CAT_ID":62705,"ELEMENT_SET_NO":999,"REV_AT_EPOCH":8277,"BSTAR":0.00051152241,"MEAN_MOTION_DOT":0.00006445,"MEAN_MOTION_DDOT":0},{"OBJECT_NAME":"ICEYE-X44","OBJECT_ID":"2025-009DC","EPOCH":"2026-07-21T03:04:27.460704","CLASSIFICATION_TYPE":"U","MEAN_MOTION":14.96186508,"ECCENTRICITY":0.00020657,"INCLINATION":97.7053,"RA_OF_ASC_NODE":280.7192,"ARG_OF_PERICENTER":60.0684,"MEAN_ANOMALY":300.0742,"EPHEMERIS_TYPE":0,"NORAD_CAT_ID":62707,"ELEMENT_SET_NO":999,"REV_AT_EPOCH":10501,"BSTAR":0.00012861244,"MEAN_MOTION_DOT":0.00001392,"MEAN_MOTION_DDOT":0},{"OBJECT_NAME":"ICEYE-X48","OBJECT_ID":"2025-052AV","EPOCH":"2026-07-20T10:53:03.470496","CLASSIFICATION_TYPE":"U","MEAN_MOTION":14.98147333,"ECCENTRICITY":0.00043334,"INCLINATION":97.6841,"RA_OF_ASC_NODE":93.1292,"ARG_OF_PERICENTER":91.654,"MEAN_ANOMALY":268.5179,"EPHEMERIS_TYPE":0,"NORAD_CAT_ID":63253,"ELEMENT_SET_NO":999,"REV_AT_EPOCH":7365,"BSTAR":0.00018036814,"MEAN_MOTION_DOT":0.0000208,"MEAN_MOTION_DDOT":0},{"OBJECT_NAME":"ICEYE-X50","OBJECT_ID":"2025-052AX","EPOCH":"2026-07-21T06:50:37.351392","CLASSIFICATION_TYPE":"U","MEAN_MOTION":14.95374384,"ECCENTRICITY":0.00033985,"INCLINATION":97.6846,"RA_OF_ASC_NODE":93.5199,"ARG_OF_PERICENTER":90.9842,"MEAN_ANOMALY":269.1769,"EPHEMERIS_TYPE":0,"NORAD_CAT_ID":63255,"ELEMENT_SET_NO":999,"REV_AT_EPOCH":7374,"BSTAR":0.000070561866,"MEAN_MOTION_DOT":0.00000722,"MEAN_MOTION_DDOT":0},{"OBJECT_NAME":"ICEYE-X51","OBJECT_ID":"2025-052AZ","EPOCH":"2026-07-21T04:37:00.906240","CLASSIFICATION_TYPE":"U","MEAN_MOTION":15.00888946,"ECCENTRICITY":0.00020743,"INCLINATION":97.762,"RA_OF_ASC_NODE":97.23,"ARG_OF_PERICENTER":63.1436,"MEAN_ANOMALY":297,"EPHEMERIS_TYPE":0,"NORAD_CAT_ID":63257,"ELEMENT_SET_NO":999,"REV_AT_EPOCH":7390,"BSTAR":0.00023204051,"MEAN_MOTION_DOT":0.00002893,"MEAN_MOTION_DDOT":0},{"OBJECT_NAME":"ICEYE-X46","OBJECT_ID":"2025-052BA","EPOCH":"2026-07-21T03:33:10.584288","CLASSIFICATION_TYPE":"U","MEAN_MOTION":14.95377472,"ECCENTRICITY":0.00015269,"INCLINATION":97.685,"RA_OF_ASC_NODE":93.3849,"ARG_OF_PERICENTER":81.2835,"MEAN_ANOMALY":278.8559,"EPHEMERIS_TYPE":0,"NORAD_CAT_ID":63258,"ELEMENT_SET_NO":999,"REV_AT_EPOCH":7372,"BSTAR":0.00007217535,"MEAN_MOTION_DOT":0.0000074,"MEAN_MOTION_DDOT":0},{"OBJECT_NAME":"ICEYE-X54","OBJECT_ID":"2025-135AU","EPOCH":"2026-07-21T07:13:25.734720","CLASSIFICATION_TYPE":"U","MEAN_MOTION":14.94751663,"ECCENTRICITY":0.00025177,"INCLINATION":97.7748,"RA_OF_ASC_NODE":316.4003,"ARG_OF_PERICENTER":166.3249,"MEAN_ANOMALY":193.804,"EPHEMERIS_TYPE":0,"NORAD_CAT_ID":64570,"ELEMENT_SET_NO":999,"REV_AT_EPOCH":5899,"BSTAR":0.00014998044,"MEAN_MOTION_DOT":0.00001572,"MEAN_MOTION_DDOT":0},{"OBJECT_NAME":"ICEYE-X52","OBJECT_ID":"2025-135AW","EPOCH":"2026-07-21T07:16:42.792384","CLASSIFICATION_TYPE":"U","MEAN_MOTION":14.93665224,"ECCENTRICITY":0.00017469,"INCLINATION":97.7772,"RA_OF_ASC_NODE":316.1834,"ARG_OF_PERICENTER":170.4875,"MEAN_ANOMALY":189.6378,"EPHEMERIS_TYPE":0,"NORAD_CAT_ID":64572,"ELEMENT_SET_NO":999,"REV_AT_EPOCH":5897,"BSTAR":0.000094514132,"MEAN_MOTION_DOT":0.00000942,"MEAN_MOTION_DDOT":0},{"OBJECT_NAME":"ICEYE-X56","OBJECT_ID":"2025-135AY","EPOCH":"2026-07-21T06:49:15.655008","CLASSIFICATION_TYPE":"U","MEAN_MOTION":14.95788202,"ECCENTRICITY":0.00017509,"INCLINATION":97.7773,"RA_OF_ASC_NODE":316.9831,"ARG_OF_PERICENTER":170.6234,"MEAN_ANOMALY":189.502,"EPHEMERIS_TYPE":0,"NORAD_CAT_ID":64574,"ELEMENT_SET_NO":999,"REV_AT_EPOCH":5902,"BSTAR":0.00019137145,"MEAN_MOTION_DOT":0.00002077,"MEAN_MOTION_DDOT":0},{"OBJECT_NAME":"ICEYE-X57","OBJECT_ID":"2025-135BC","EPOCH":"2026-07-21T06:26:18.377664","CLASSIFICATION_TYPE":"U","MEAN_MOTION":15.00870871,"ECCENTRICITY":0.00021704,"INCLINATION":97.8035,"RA_OF_ASC_NODE":318.8468,"ARG_OF_PERICENTER":56.0799,"MEAN_ANOMALY":304.0631,"EPHEMERIS_TYPE":0,"NORAD_CAT_ID":64578,"ELEMENT_SET_NO":999,"REV_AT_EPOCH":5913,"BSTAR":0.00027230185,"MEAN_MOTION_DOT":0.00003403,"MEAN_MOTION_DDOT":0},{"OBJECT_NAME":"ICEYE-X55","OBJECT_ID":"2025-135BF","EPOCH":"2026-07-21T07:02:20.953248","CLASSIFICATION_TYPE":"U","MEAN_MOTION":14.95384796,"ECCENTRICITY":0.00022865,"INCLINATION":97.777,"RA_OF_ASC_NODE":316.8139,"ARG_OF_PERICENTER":209.4724,"MEAN_ANOMALY":150.6369,"EPHEMERIS_TYPE":0,"NORAD_CAT_ID":64581,"ELEMENT_SET_NO":999,"REV_AT_EPOCH":5901,"BSTAR":0.00015279326,"MEAN_MOTION_DOT":0.00001629,"MEAN_MOTION_DDOT":0}]}
